ORBCOMM-X               
1 21576U 91050C   24184.61494128  .00000623  00000+0  20078-3 0  9990
2 21576  98.3891 251.5909 0004322 147.4341 212.7116 14.42573536731705
ORBCOMM FM01            
1 23545U 95017A   24184.54237206  .00006324  00000+0  82790-3 0  9992
2 23545  69.9659 220.2038 0004150 171.6128 188.5092 14.80826990560571
ORBCOMM FM02            
1 23546U 95017B   24184.58466134  .00007132  00000+0  93952-3 0  9991
2 23546  69.9682 239.6112 0005479 150.6161 209.5298 14.80492748560521
ORBCOMM FM08            
1 25112U 97084A   24184.57722392  .00001938  00000+0  61707-3 0  9999
2 25112  45.0135 242.6313 0009579 279.4862  80.4905 14.42865358390824
ORBCOMM FM10            
1 25113U 97084B   24184.58788007  .00002243  00000+0  70925-3 0  9998
2 25113  45.0148 244.4827 0007328 257.7265 102.2765 14.42765686565975
ORBCOMM FM11            
1 25114U 97084C   24184.54198349  .00001810  00000+0  58221-3 0  9993
2 25114  45.0132 244.8153 0008100 257.1203 102.8743 14.42632137390938
ORBCOMM FM12            
1 25115U 97084D   24184.57237333  .00001927  00000+0  61730-3 0  9992
2 25115  45.0141 244.3843 0007139 257.9885 102.0166 14.42595659390731
ORBCOMM FM09            
1 25116U 97084E   24184.58503431  .00001924  00000+0  61701-3 0  9994
2 25116  45.0145 245.0268 0008005 246.6195 113.3813 14.42560136390946
